IRIDIUM 36              
1 24967U 97056C   25033.52316153  .00001052  00000+0  34567-3 0  9999
2 24967  86.3941 229.5180 0002246  90.6583 269.4872 14.37388577432878
IRIDIUM 39              
1 25042U 97069D   25033.61204759  .00001289  00000+0  33488-3 0  9999
2 25042  86.3880 268.8382 0019441  41.1278 319.1386 14.48876704429473
IRIDIUM 38              
1 25043U 97069E   25033.24525777  .00001022  00000+0  33243-3 0  9999
2 25043  86.3951 289.9578 0002656 129.3130 230.8304 14.37896968426568
IRIDIUM 42              
1 25077U 97077A   25033.29552857  .00000972  00000+0  32719-3 0  9999
2 25077  86.3964 295.9428 0001931 103.9344 256.2068 14.36150766421832
IRIDIUM 44              
1 25078U 97077B   25033.54400422  .00000966  00000+0  30042-3 0  9998
2 25078  86.3935 278.1070 0003853  97.4378 262.7259 14.40020236424320
IRIDIUM 45              
1 25104U 97082A   25033.29355904  .00029474  00000+0  12236-2 0  9999
2 25104  86.3607 113.0921 0132968 114.8517 246.6618 15.15875511431568
IRIDIUM 24              
1 25105U 97082B   25033.34257349  .00001308  00000+0  39380-3 0  9996
2 25105  86.3952 137.4902 0012327 154.8557 205.3246 14.41861719423782
